#dP2024  3  4  0  0  0.00000000      96 __u+U IGS20 FIT  IAC
## 2304  86400.00000000   900.00000000 60373 0.0000000000000
+  128   C02C03C04C05C06C07C08C09C10C11C12C13C14C16C19C20C21
+        C22C23C24C25C26C27C28C29C30C32C33C34C35C36C37C38C39
+        C40C41C42C43C44C45C46C60E02E03E04E05E07E08E09E10E11
+        E12E13E14E15E18E19E21E24E25E26E27E30E31E33E34E36G01
+        G02G03G04G05G06G07G08G09G10G11G12G13G14G15G16G17G18
+        G19G20G21G22G23G24G25G26G27G28G29G30G31G32J02J03J04
+        J07R01R02R03R04R05R06R07R08R09R10R11R12R13R14R15R16
+        R17R18R19R20R21R22R23R24R26  0  0  0  0  0  0  0  0
++        16 17 17 16  9 10 10  9  9  9  9  9  9  9  7  7  8
++         7  7  7  7  7  7  7  7  7  7  7  8  7  7  7  9  9
++         9  7  8  7  8  7  7 17  4  5  4  5  4  5  5  4  4
++         4  5  5  5  4  4  4  4  4  4  4  4  4  4  5  5  4
++         4  4  4  4  4  4  4  4  4  4  4  4  4  4  4  4  4
++         4  4  4  4  4  4  4  4  5  4  4  4  4  4 11 11 11
++        17  7  6  6  6  6 15  6  6  6 15  6  6  8  6  6  6
++         6  6  8  8  6  6 15  6 14  0  0  0  0  0  0  0  0
%c M  cc GPS ccc cccc cccc cccc cccc ccccc ccccc ccccc ccccc
%c cc cc ccc ccc cccc cccc cccc cccc ccccc ccccc ccccc ccccc
%f  0.0000000  0.000000000  0.00000000000  0.000000000000000
%f  0.0000000  0.000000000  0.00000000000  0.000000000000000
%i    0    0    0    0      0      0      0      0         0
%i    0    0    0    0      0      0      0      0         0
/* INFORMATION & ANALYSIS CENTER (IAC)            RAPID DATA
/* S/V CLOCKS ARE ALIGNED TO GNSS TIME                      
/* G:C1WC2W R:C1PC2P E:C1XC5X C:C2IC6I J:C1CC2S             
/* PCV:IGS20_2290 OL/AL:FES2004  NONE     YN ORB:CoN CLK:CoN
*  2024 03 04  7 30  0.00000000
PC02   4466.379256  41851.049484  -1674.367344    481.305437
PC03 -14676.265470  39475.334995   -836.164770     23.011417
PC04 -39655.553611  14389.860598    151.172035    789.889104
PC05  21830.855804  35997.882134  -1330.843743   -823.807702
PC06  -3528.451830  37842.039758 -17901.939662    249.715351
PC07 -10897.602772  26059.429356  31356.469190   -900.069512
PC08 -20075.603196  33848.657372 -15411.969781     -9.375733
PC09   1272.219179  40493.919965  -9975.015061   -573.339055
PC10  -1656.199675  27711.372707  32078.181215     59.767799
PC11  -3025.084437  19675.651912  19625.613343    442.074929
PC12 -16268.791577   2528.406298  22570.133858   -205.769903
PC13 -12602.556260  33956.067270 -21642.870489    422.312223
PC14 -12276.890438  14714.003101 -20246.172099    327.239778
PC16  -5415.851396  36011.917693 -20668.327946   -375.817791
PC19   1518.490922 -15715.710431  23041.617822   -921.741698
PC20  19840.643970 -11996.588863  15571.251855   -222.541009
PC21 -27805.973974    562.089260   2127.927926   -961.451948
PC22 -18762.762116 -10643.202125  17691.532372    -87.447345
PC23   8197.558865  17088.444937  20480.459725   -777.753416
PC24 -17179.996832  19860.894512  -9499.450960    940.272144
PC25  -5398.961033  26149.227284   8134.499812    341.019466
PC26 -18046.513899   2998.048103 -21103.148085   -257.858257
PC27  19834.808391   6227.105740 -18628.913161    279.800008
PC28  18266.857694  20352.107856  -5542.292809    213.188764
PC29  -5480.547398 -23762.308776 -13579.298826    249.945656
PC30  11042.975435 -11931.391195 -22691.964653    -33.197710
PC32  27819.654072   -769.556878  -2158.381772   -577.204711
PC33  -1481.435224  15735.365478 -22988.622271   -954.140036
PC34  -9913.370841  13289.981466  22429.851864    382.591594
PC35 -18989.074126 -19758.852748   5371.542453    419.355070
PC36   6297.688117 -26043.611789  -7765.926392      6.435152
PC37  17977.786539  -2097.398020  21236.957629   -941.200335
PC38 -23870.833424  34082.239424  -7167.924391    140.591891
PC39  -8158.094849  32039.584884 -25975.304842     -7.411928
PC40 -15862.004365  19274.741942  33926.086206    -59.210669
PC41  18133.177636  10938.144620 -18123.060825   -899.882999
PC42 -21094.911584  11325.846839 -14260.749330   -449.409936
PC43   4605.060262  23537.642304  14233.044534     62.795256
PC44 -20212.261367  -5626.791803  18401.610822    402.865334
PC45  -8187.295411 -16906.697954 -20638.330269    -73.730887
PC46  16849.755975 -20434.770119   8713.689975   -128.804876
PC60   7279.756113  41517.300041   -817.794212     -0.365740
PE02 -13681.974350  20800.437616  16013.395086    108.377964
PE03  -2664.476719  17508.327328 -23717.883115    -97.905907
PE04 -17405.838536 -20136.377124  12962.407988   -341.544337
PE05 -20871.047401   4692.419679 -20450.913298   4725.806438
PE07  26964.852485  11220.083094   4851.008200   -107.014550
PE08  16858.329351  20183.362104 -13592.173189   -233.449181
PE09 -26928.226360 -11320.183540  -4739.551566   -357.993168
PE10 -12255.536959 -19426.815866  18668.990415   -606.633961
PE11 -15446.322367  -8522.921993  23765.283476   3203.096675
PE12  -7595.298576 -26290.713616  11314.996116   -933.064667
PE13  15264.352264   9226.445914 -23613.694145    -20.399602
PE14  12834.134094  21613.724252  13912.671677     56.660128
PE15   7278.046516  26555.595868 -10835.872690    -89.248363
PE18    477.824856 -19776.320496 -20053.929555    396.050009
PE19   5014.743221 -16346.921301  24173.681214   -498.563079
PE21  25812.873103 -14450.297712    935.964344   -582.148340
PE24 -23276.961390  -1091.579981 -18289.914535   -631.961602
PE25 -25941.305551  14203.144002  -1338.798129      1.672074
PE26  14156.616586 -13854.699038 -21991.297738    386.424650
PE27  23432.775339    675.626017  18059.001045   -290.003254
PE30   7018.359525  15401.389103  24267.098820    -59.378354
PE31  -7280.764930 -15211.791016 -24327.276939    -17.425700
PE33   5175.932286 -27848.489402  -8595.397024      8.509921
PE34  -4798.439279  28066.336702   8086.449692    -98.033139
PE36 -14202.833994  13167.691460  22383.552698   -194.410643
PG01 -11553.073477  15324.611711  17869.738583    172.234035
PG02 -14465.724484   6100.713516  21884.783816   -475.862281
PG03 -23417.500606  11939.599284   3188.538203    231.156586
PG04 -20140.281171   2106.385374 -17239.020585    306.567445
PG05  21854.614016  -2448.791835 -15129.564274   -164.096458
PG06   5950.147792  24406.917145  -8376.772846    382.518146
PG07  -5918.906524  23709.755133  -9300.655028    -76.267918
PG08 -24382.535955  -4034.465521  10182.461645     29.386954
PG09  -8332.694087  12916.128677 -21743.372512    112.710918
PG10    467.702137 -16635.558014  20826.907845      0.826308
PG11  11959.108161  15793.791557 -17689.876320   -595.777159
PG12  24263.322284  -9997.104712   3577.788085   -483.878794
PG13  22675.657880  13514.178527   3681.157153    631.060173
PG14  -4706.821383  18299.158519  18614.594619    341.600885
PG15  24682.029296   1362.121641   9489.201708    134.029391
PG16 -19290.241555  -4494.788716 -18244.638709   -349.088949
PG17   4618.597636  18239.452319  19107.461830    714.935562
PG18   5679.636737 -24285.124007  -8844.167007   -568.506287
PG19  13846.978418  19363.914430  11965.185010    449.140838
PG20  13942.689760   7726.940405 -21161.232040    385.223192
PG21 -15561.035361   -680.609070  22040.682928    132.686971
PG22   2863.009378  15570.102799  21786.687277     21.428378
PG23  12702.024964 -19094.985854  13255.648757    169.381534
PG24  15187.774757  -3774.434920  21028.205534   -441.241005
PG25  19208.516296 -17288.062761  -5812.095428    490.357387
PG26 -10356.960720 -12132.165416 -21394.131187    183.538113
PG27 -23270.298048 -13257.550066  -1231.256099     -9.106318
PG28  -5545.659904 -25374.465378  -5581.944957   -152.043014
PG29  10988.923863 -10601.986155 -21792.132078   -605.654341
PG30   1255.715497  26376.723521    673.297428   -424.486968
PG31 -10498.715435 -19506.612786 -14562.234246   -227.920777
PG32  -9161.754062 -18346.720914  17194.849684   -614.502635
PJ02 -31449.308124  27046.939452  12778.108589     -2.558299
PJ03 -26406.443847  25151.566998  26268.522633     -0.218270
PJ04 -30627.487633  21533.102519 -14379.578165     50.771747
PJ07 -25412.284669  33641.690062    -31.548763      0.062398
PR01  22215.583893   6807.761673 -10534.505492     78.765990
PR02  24497.598843   -406.275924   7027.263335    -22.545120
PR03  12927.935137  -8250.213419  20417.121319     95.708710
PR04  -5272.644655 -11072.592908  22403.458095    226.064905
PR05 -20745.880096  -8266.589714  12365.502005    127.868390
PR06 -24124.686259   1984.297083  -8078.866663   -153.254833
PR07 -12211.960536   8447.972820 -20708.180434     77.172307
PR08   5591.276158  11101.741019 -22203.226936    -74.631240
PR09 -16769.950532  10376.496694 -16116.920025    173.394954
PR10 -15635.914243  20051.160124  -2526.696003   -131.198814
PR11  -5587.475121  19999.158081  14809.349955     32.391779
PR12   8838.681218   6620.810429  23011.466187     37.410182
PR13  16263.094840  -8199.846485  17836.358034    -44.959578
PR14  14898.086020 -20715.078436    323.973210     26.160992
PR15   4592.636674 -19412.693648 -15887.470247     81.661115
PR16  -8547.334351  -6758.171000 -23060.986986     23.744165
PR17   3031.174586 -15740.113101 -19822.868781     66.110642
PR18  -6691.292315 -23708.221625  -6718.167919    130.404117
PR19 -12038.160389 -20895.803642   8321.828867   -268.084514
PR20 -11807.407479  -2880.296333  22443.110858   -109.223479
PR21  -2964.717551  15872.753764  19753.319914    -81.795711
PR22   6457.879360  24012.502547   5674.949784    111.070616
PR23  13242.998276  18451.138671 -11607.379692   -113.853751
PR24  12143.067972   1571.841107 -22361.107524    -46.389118
PR26   4597.282644  11082.148237 -22487.554875 999999.999999
EOF
